CCSDS_OMM_VERS = 2.0
CREATION_DATE  = 
ORIGINATOR     = 

OBJECT_NAME    = STARLINK-36852
OBJECT_ID      = 2026-037B
CENTER_NAME    = EARTH
REF_FRAME      = TEME
TIME_SYSTEM    = UTC
MEAN_ELEMENT_THEORY = SGP/SGP4

EPOCH          = 2026-03-03T14:00:03.000384
MEAN_MOTION    = 15.97460287
ECCENTRICITY   = .0001249
INCLINATION    = 43.0004
RA_OF_ASC_NODE = 236.3747
ARG_OF_PERICENTER = 264.2220
MEAN_ANOMALY   = 319.2231

EPHEMERIS_TYPE = 0
CLASSIFICATION_TYPE = U
NORAD_CAT_ID   = 67933
ELEMENT_SET_NO = 999
REV_AT_EPOCH   = 221
BSTAR          = -.29446E-2
MEAN_MOTION_DOT = -.1355793E-1
MEAN_MOTION_DDOT = .5568E-3

CCSDS_OMM_VERS = 2.0
CREATION_DATE  = 
ORIGINATOR     = 

OBJECT_NAME    = STARLINK-36861
OBJECT_ID      = 2026-037C
CENTER_NAME    = EARTH
REF_FRAME      = TEME
TIME_SYSTEM    = UTC
MEAN_ELEMENT_THEORY = SGP/SGP4

EPOCH          = 2026-03-03T14:00:03.000384
MEAN_MOTION    = 15.97597259
ECCENTRICITY   = .0001361
INCLINATION    = 43.0003
RA_OF_ASC_NODE = 236.3701
ARG_OF_PERICENTER = 268.5302
MEAN_ANOMALY   = 316.8494

EPHEMERIS_TYPE = 0
CLASSIFICATION_TYPE = U
NORAD_CAT_ID   = 67934
ELEMENT_SET_NO = 999
REV_AT_EPOCH   = 221
BSTAR          = -.29234E-2
MEAN_MOTION_DOT = -.1356323E-1
MEAN_MOTION_DDOT = .55799E-3

CCSDS_OMM_VERS = 2.0
CREATION_DATE  = 
ORIGINATOR     = 

OBJECT_NAME    = STARLINK-36860
OBJECT_ID      = 2026-037D
CENTER_NAME    = EARTH
REF_FRAME      = TEME
TIME_SYSTEM    = UTC
MEAN_ELEMENT_THEORY = SGP/SGP4

EPOCH          = 2026-03-03T14:00:03.000384
MEAN_MOTION    = 15.97742292
ECCENTRICITY   = .0001512
INCLINATION    = 43.0003
RA_OF_ASC_NODE = 236.3654
ARG_OF_PERICENTER = 272.0924
MEAN_ANOMALY   = 315.3019

EPHEMERIS_TYPE = 0
CLASSIFICATION_TYPE = U
NORAD_CAT_ID   = 67935
ELEMENT_SET_NO = 999
REV_AT_EPOCH   = 221
BSTAR          = -.29201E-2
MEAN_MOTION_DOT = -.1365707E-1
MEAN_MOTION_DDOT = .56593E-3

CCSDS_OMM_VERS = 2.0
CREATION_DATE  = 
ORIGINATOR     = 

OBJECT_NAME    = STARLINK-36848
OBJECT_ID      = 2026-037E
CENTER_NAME    = EARTH
REF_FRAME      = TEME
TIME_SYSTEM    = UTC
MEAN_ELEMENT_THEORY = SGP/SGP4

EPOCH          = 2026-03-03T14:00:03.000384
MEAN_MOTION    = 15.98009049
ECCENTRICITY   = .0001546
INCLINATION    = 43.0003
RA_OF_ASC_NODE = 236.3553
ARG_OF_PERICENTER = 270.1059
MEAN_ANOMALY   = 321.0753

EPHEMERIS_TYPE = 0
CLASSIFICATION_TYPE = U
NORAD_CAT_ID   = 67936
ELEMENT_SET_NO = 999
REV_AT_EPOCH   = 221
BSTAR          = -.28636E-2
MEAN_MOTION_DOT = -.1359471E-1
MEAN_MOTION_DDOT = .56277E-3

CCSDS_OMM_VERS = 2.0
CREATION_DATE  = 
ORIGINATOR     = 

OBJECT_NAME    = STARLINK-36370
OBJECT_ID      = 2026-037F
CENTER_NAME    = EARTH
REF_FRAME      = TEME
TIME_SYSTEM    = UTC
MEAN_ELEMENT_THEORY = SGP/SGP4

EPOCH          = 2026-03-03T14:00:03.000384
MEAN_MOTION    = 15.97879454
ECCENTRICITY   = .0001662
INCLINATION    = 43.0005
RA_OF_ASC_NODE = 236.3601
ARG_OF_PERICENTER = 269.9900
MEAN_ANOMALY   = 319.4677

EPHEMERIS_TYPE = 0
CLASSIFICATION_TYPE = U
NORAD_CAT_ID   = 67937
ELEMENT_SET_NO = 999
REV_AT_EPOCH   = 221
BSTAR          = -.28804E-2
MEAN_MOTION_DOT = -.1357617E-1
MEAN_MOTION_DDOT = .56061E-3

CCSDS_OMM_VERS = 2.0
CREATION_DATE  = 
ORIGINATOR     = 

OBJECT_NAME    = STARLINK-36371
OBJECT_ID      = 2026-037G
CENTER_NAME    = EARTH
REF_FRAME      = TEME
TIME_SYSTEM    = UTC
MEAN_ELEMENT_THEORY = SGP/SGP4

EPOCH          = 2026-03-03T14:00:03.000384
MEAN_MOTION    = 15.98125376
ECCENTRICITY   = .0001542
INCLINATION    = 43.0003
RA_OF_ASC_NODE = 236.3511
ARG_OF_PERICENTER = 270.2563
MEAN_ANOMALY   = 322.4725

EPHEMERIS_TYPE = 0
CLASSIFICATION_TYPE = U
NORAD_CAT_ID   = 67938
ELEMENT_SET_NO = 999
REV_AT_EPOCH   = 221
BSTAR          = -.28331E-2
MEAN_MOTION_DOT = -.1353827E-1
MEAN_MOTION_DDOT = .55918E-3

CCSDS_OMM_VERS = 2.0
CREATION_DATE  = 
ORIGINATOR     = 

OBJECT_NAME    = STARLINK-36246
OBJECT_ID      = 2026-037H
CENTER_NAME    = EARTH
REF_FRAME      = TEME
TIME_SYSTEM    = UTC
MEAN_ELEMENT_THEORY = SGP/SGP4

EPOCH          = 2026-03-03T14:00:03.000384
MEAN_MOTION    = 15.98239336
ECCENTRICITY   = .0001674
INCLINATION    = 43.0004
RA_OF_ASC_NODE = 236.3476
ARG_OF_PERICENTER = 270.5425
MEAN_ANOMALY   = 323.7249

EPHEMERIS_TYPE = 0
CLASSIFICATION_TYPE = U
NORAD_CAT_ID   = 67939
ELEMENT_SET_NO = 999
REV_AT_EPOCH   = 212
BSTAR          = -.27979E-2
MEAN_MOTION_DOT = -.1345738E-1
MEAN_MOTION_DDOT = .55373E-3

CCSDS_OMM_VERS = 2.0
CREATION_DATE  = 
ORIGINATOR     = 

OBJECT_NAME    = STARLINK-36907
OBJECT_ID      = 2026-037J
CENTER_NAME    = EARTH
REF_FRAME      = TEME
TIME_SYSTEM    = UTC
MEAN_ELEMENT_THEORY = SGP/SGP4

EPOCH          = 2026-03-03T14:00:03.000384
MEAN_MOTION    = 15.98618727
ECCENTRICITY   = .0001614
INCLINATION    = 43.0003
RA_OF_ASC_NODE = 236.3336
ARG_OF_PERICENTER = 266.6299
MEAN_ANOMALY   = 332.8743

EPHEMERIS_TYPE = 0
CLASSIFICATION_TYPE = U
NORAD_CAT_ID   = 67940
ELEMENT_SET_NO = 999
REV_AT_EPOCH   = 221
BSTAR          = -.27232E-2
MEAN_MOTION_DOT = -.1338137E-1
MEAN_MOTION_DDOT = .55021E-3

CCSDS_OMM_VERS = 2.0
CREATION_DATE  = 
ORIGINATOR     = 

OBJECT_NAME    = STARLINK-36927
OBJECT_ID      = 2026-037K
CENTER_NAME    = EARTH
REF_FRAME      = TEME
TIME_SYSTEM    = UTC
MEAN_ELEMENT_THEORY = SGP/SGP4

EPOCH          = 2026-03-03T14:00:03.000384
MEAN_MOTION    = 15.98861766
ECCENTRICITY   = .0001606
INCLINATION    = 43.0003
RA_OF_ASC_NODE = 236.3254
ARG_OF_PERICENTER = 268.0662
MEAN_ANOMALY   = 334.7143

EPHEMERIS_TYPE = 0
CLASSIFICATION_TYPE = U
NORAD_CAT_ID   = 67941
ELEMENT_SET_NO = 999
REV_AT_EPOCH   = 221
BSTAR          = -.26799E-2
MEAN_MOTION_DOT = -.1335065E-1
MEAN_MOTION_DDOT = .5493E-3

CCSDS_OMM_VERS = 2.0
CREATION_DATE  = 
ORIGINATOR     = 

OBJECT_NAME    = STARLINK-36914
OBJECT_ID      = 2026-037L
CENTER_NAME    = EARTH
REF_FRAME      = TEME
TIME_SYSTEM    = UTC
MEAN_ELEMENT_THEORY = SGP/SGP4

EPOCH          = 2026-03-03T14:00:03.000384
MEAN_MOTION    = 15.98390757
ECCENTRICITY   = .0001583
INCLINATION    = 43.0003
RA_OF_ASC_NODE = 236.3419
ARG_OF_PERICENTER = 269.3870
MEAN_ANOMALY   = 327.0234

EPHEMERIS_TYPE = 0
CLASSIFICATION_TYPE = U
NORAD_CAT_ID   = 67942
ELEMENT_SET_NO = 999
REV_AT_EPOCH   = 221
BSTAR          = -.27881E-2
MEAN_MOTION_DOT = -.1352377E-1
MEAN_MOTION_DDOT = .55964E-3

CCSDS_OMM_VERS = 2.0
CREATION_DATE  = 
ORIGINATOR     = 

OBJECT_NAME    = STARLINK-36851
OBJECT_ID      = 2026-037M
CENTER_NAME    = EARTH
REF_FRAME      = TEME
TIME_SYSTEM    = UTC
MEAN_ELEMENT_THEORY = SGP/SGP4

EPOCH          = 2026-03-03T14:00:03.000384
MEAN_MOTION    = 15.98507497
ECCENTRICITY   = .0001597
INCLINATION    = 43.0005
RA_OF_ASC_NODE = 236.3381
ARG_OF_PERICENTER = 270.5352
MEAN_ANOMALY   = 327.4415

EPHEMERIS_TYPE = 0
CLASSIFICATION_TYPE = U
NORAD_CAT_ID   = 67943
ELEMENT_SET_NO = 999
REV_AT_EPOCH   = 221
BSTAR          = -.276E-2
MEAN_MOTION_DOT = -.1347602E-1
MEAN_MOTION_DDOT = .5567E-3

CCSDS_OMM_VERS = 2.0
CREATION_DATE  = 
ORIGINATOR     = 

OBJECT_NAME    = STARLINK-36892
OBJECT_ID      = 2026-037N
CENTER_NAME    = EARTH
REF_FRAME      = TEME
TIME_SYSTEM    = UTC
MEAN_ELEMENT_THEORY = SGP/SGP4

EPOCH          = 2026-03-03T14:00:03.000384
MEAN_MOTION    = 15.98741681
ECCENTRICITY   = .0001505
INCLINATION    = 43.0003
RA_OF_ASC_NODE = 236.3302
ARG_OF_PERICENTER = 271.0553
MEAN_ANOMALY   = 330.0740

EPHEMERIS_TYPE = 0
CLASSIFICATION_TYPE = U
NORAD_CAT_ID   = 67944
ELEMENT_SET_NO = 999
REV_AT_EPOCH   = 221
BSTAR          = -.27075E-2
MEAN_MOTION_DOT = -.1339623E-1
MEAN_MOTION_DDOT = .55204E-3

